{"type": "FeatureCollection", "features": [{"type": "Feature", "properties": {"naam": "Zorgring"}, "geometry": {"type": "Polygon", "coordinates": [[[4.84929, 53.18736], [4.71848, 53.07924], [4.71024, 52.90234], [4.66463, 52.79687], [4.63442, 52.71126], [4.60389, 52.54967], [4.57675, 52.48426], [4.56681, 52.46817], [4.6087, 52.46817], [4.73092, 52.44976], [4.88885, 52.43093], [5.01957, 52.38675], [5.13218, 52.46379], [5.09098, 52.50561], [5.03056, 52.63248], [5.14866, 52.61914], [5.30522, 52.68746], [5.28324, 52.74735], [5.19535, 52.75651], [5.15141, 52.73904], [5.1212, 52.85363], [5.03056, 52.93647], [4.82182, 52.91164], [4.78611, 52.99933], [4.90422, 53.0918], [4.91111, 53.13546], [4.84929, 53.18736]]]}}, {"type": "Feature", "properties": {"naam": "Sleutelnet"}, "geometry": {"type": "Polygon", "coordinates": [[[4.38051, 52.19542], [4.43704, 52.15236], [4.41664, 52.11602], [4.53638, 52.09725], [4.71834, 52.10273], [4.83781, 52.14067], [4.84056, 52.19037], [4.68233, 52.2567], [4.6068, 52.31383], [4.56835, 52.31131], [4.49144, 52.33062], [4.38051, 52.19542]]]}}, {"type": "Feature", "properties": {"naam": "RijnmondNet"}, "geometry": {"type": "Polygon", "coordinates": [[[4.09868, 51.98636], [4.06673, 51.97874], [4.04169, 51.91865], [4.00539, 51.86], [3.95747, 51.84627], [3.86995, 51.82132], [3.84876, 51.80875], [3.86513, 51.77832], [3.90276, 51.77039], [3.9541, 51.76883], [3.97522, 51.75536], [4.00198, 51.7253], [4.05267, 51.70852], [4.13686, 51.70026], [4.16655, 51.68269], [4.20316, 51.67532], [4.23151, 51.65943], [4.2621, 51.65403], [4.35854, 51.66597], [4.41934, 51.69661], [4.5244, 51.69107], [4.69057, 51.72936], [4.75923, 51.78547], [4.65178, 51.78872], [4.60062, 51.80713], [4.62396, 51.88687], [4.7043, 51.90001], [4.56092, 52.00961], [4.51341, 52.02271], [4.46113, 52.01007], [4.28819, 51.94828], [4.09868, 51.98636]]]}}, {"type": "Feature", "properties": {"naam": "Trijn"}, "geometry": {"type": "Polygon", "coordinates": [[[4.83815, 52.1411], [4.82138, 51.98938], [4.88866, 51.93177], [5.10291, 52.00608], [5.1232, 52.0006], [5.15035, 51.9761], [5.15859, 51.93761], [5.17815, 51.91772], [5.2032, 51.93256], [5.34336, 51.95983], [5.47233, 52.07218], [5.52039, 52.26087], [5.40438, 52.24828], [5.35834, 52.27684], [5.16059, 52.18094], [4.90653, 52.25919], [4.8409, 52.1908], [4.83815, 52.1411]]]}}, {"type": "Feature", "properties": {"naam": "Zorgnetwerk Midden-Brabant"}, "geometry": {"type": "Polygon", "coordinates": [[[4.89557, 51.63172], [4.853, 51.55835], [4.95737, 51.50881], [5.027, 51.48915], [5.04732, 51.47225], [5.07684, 51.46947], [5.09881, 51.43781], [5.17984, 51.47375], [5.2485, 51.57457], [5.16885, 51.69731], [5.19255, 51.7405], [5.16412, 51.74343], [5.12746, 51.73828], [5.09493, 51.72971], [5.05052, 51.71266], [5.03084, 51.71475], [4.97657, 51.71732], [4.95462, 51.68028], [4.89557, 51.63172]]]}}, {"type": "Feature", "properties": {"naam": "REN West-Brabant"}, "geometry": {"type": "Polygon", "coordinates": [[[4.92057, 51.39542], [5.00434, 51.44595], [5.027, 51.48915], [4.95737, 51.50881], [4.853, 51.55835], [4.89557, 51.63172], [4.95462, 51.68028], [4.97659, 51.72028], [5.02153, 51.81944], [4.91921, 51.82371], [4.85536, 51.80331], [4.75923, 51.78547], [4.69057, 51.72936], [4.5244, 51.69107], [4.42481, 51.69604], [4.37194, 51.65602], [4.27031, 51.62917], [4.2353, 51.50454], [4.2408, 51.44376], [4.24903, 51.37614], [4.33211, 51.377], [4.34379, 51.35771], [4.40009, 51.35728], [4.43168, 51.36499], [4.43135, 51.37592], [4.3843, 51.42155], [4.39975, 51.43396], [4.39511, 51.44466], [4.3843, 51.44895], [4.46186, 51.47335], [4.53673, 51.48274], [4.54635, 51.47419], [4.53467, 51.42326], [4.58274, 51.43311], [4.66788, 51.42712], [4.66582, 51.44424], [4.71732, 51.46948], [4.75783, 51.5024], [4.77775, 51.50455], [4.78703, 51.49814], [4.79647, 51.49942], [4.81552, 51.49514], [4.82204, 51.48253], [4.84366, 51.4806], [4.82416, 51.44717], [4.82938, 51.42229], [4.76708, 51.42989], [4.77157, 51.41256], [4.85569, 51.41365], [4.90118, 51.41204], [4.92057, 51.39542]]]}}, {"type": "Feature", "properties": {"naam": "Noord- en Midden-Limburg"}, "geometry": {"type": "Polygon", "coordinates": [[[6.0939, 51.62015], [5.92386, 51.63757], [5.78903, 51.59201], [5.93048, 51.38079], [5.8728, 51.35249], [5.67093, 51.31216], [5.62286, 51.27094], [5.61737, 51.22968], [5.56793, 51.2228], [5.65582, 51.19269], [5.74783, 51.1858], [5.78766, 51.15394], [5.8522, 51.14447], [5.8158, 51.12464], [5.83331, 51.09877], [5.79521, 51.09404], [5.79834, 51.06957], [5.8646, 51.05199], [5.91336, 51.06688], [5.93803, 51.03622], [6.08978, 51.13327], [6.1763, 51.15653], [6.16119, 51.19699], [6.08429, 51.17203], [6.0733, 51.24258], [6.16669, 51.3319], [6.22711, 51.35849], [6.21887, 51.44759], [6.21063, 51.51943], [6.0939, 51.62015]]]}}, {"type": "Feature", "properties": {"naam": "RZCC"}, "geometry": {"type": "Polygon", "coordinates": [[[5.09881, 51.43781], [5.07284, 51.39414], [5.13876, 51.31609], [5.20467, 51.31867], [5.24175, 51.30493], [5.22527, 51.26886], [5.26784, 51.2637], [5.34887, 51.2723], [5.42303, 51.26199], [5.48894, 51.29978], [5.55761, 51.2637], [5.56793, 51.2228], [5.61737, 51.22968], [5.62286, 51.27094], [5.67093, 51.31216], [5.8728, 51.35249], [5.93048, 51.38079], [5.78903, 51.59201], [5.71238, 51.56762], [5.4748, 51.54799], [5.2485, 51.57457], [5.17984, 51.47375], [5.09881, 51.43781]]]}}, {"type": "Feature", "properties": {"naam": "NOEL"}, "geometry": {"type": "Polygon", "coordinates": [[[6.0939, 51.62015], [6.11045, 51.65698], [6.03218, 51.67316], [6.03904, 51.71998], [5.95665, 51.74464], [5.99098, 51.76589], [5.94703, 51.82365], [5.96486, 51.83809], [5.99919, 51.8313], [6.06651, 51.86013], [6.00334, 51.88133], [5.89485, 51.86946], [5.73829, 51.88303], [5.57624, 51.90506], [5.45127, 51.88557], [5.37162, 51.81601], [5.3924, 51.8128], [5.61213, 51.82384], [5.75907, 51.75503], [5.89777, 51.66824], [5.92386, 51.63757], [6.0939, 51.62015]]]}}, {"type": "Feature", "properties": {"naam": "GERRIT"}, "geometry": {"type": "Polygon", "coordinates": [[[4.84708, 53.20622], [5.35932, 53.08101], [5.40635, 52.9151], [5.35319, 52.88241], [5.41425, 52.84527], [5.55844, 52.8308], [5.62299, 52.85107], [5.72461, 52.83863], [6.05969, 52.82951], [6.16544, 52.6724], [6.29727, 52.66074], [6.38654, 52.61324], [6.6145, 52.67324], [6.71475, 52.62741], [6.8768, 52.65075], [7.04709, 52.63741], [7.08417, 52.85107], [7.21326, 53.00422], [7.19403, 53.13212], [7.20777, 53.24239], [7.07593, 53.26375], [7.09104, 53.3048], [6.90427, 53.34417], [6.87268, 53.43999], [6.81226, 53.46207], [6.69828, 53.46371], [6.41538, 53.52335], [6.12836, 53.49966], [5.94709, 53.46779], [5.72599, 53.46125], [5.64496, 53.4727], [5.18903, 53.39743], [4.84845, 53.22266], [4.84708, 53.20622]]]}}, {"type": "Feature", "properties": {"naam": "ZorgNetOost"}, "geometry": {"type": "Polygon", "coordinates": [[[6.75988, 52.11852], [6.85601, 52.12189], [6.88484, 52.16319], [6.94527, 52.18088], [6.9851, 52.22212], [7.07024, 52.23894], [7.03041, 52.28265], [7.07573, 52.34729], [7.062, 52.3976], [6.98921, 52.4696], [6.95076, 52.43697], [6.85051, 52.45371], [6.6967, 52.48801], [6.61431, 52.47713], [6.49483, 52.45789], [6.38836, 52.42944], [6.37535, 52.39844], [6.33415, 52.32632], [6.35201, 52.24146], [6.40969, 52.24231], [6.48659, 52.18004], [6.58821, 52.18172], [6.66786, 52.1674], [6.661, 52.13033], [6.75988, 52.11852]]]}}, {"type": "Feature", "properties": {"naam": "RSO Noord-Oost Brabant"}, "geometry": {"type": "Polygon", "coordinates": [[[5.20151, 51.80601], [5.19632, 51.74665], [5.16885, 51.69731], [5.2485, 51.57457], [5.4748, 51.54799], [5.71238, 51.56762], [5.78903, 51.59201], [5.92386, 51.63757], [5.89777, 51.66824], [5.75907, 51.75503], [5.61213, 51.82384], [5.3924, 51.8128], [5.30863, 51.82469], [5.24819, 51.81706], [5.20151, 51.80601]]]}}, {"type": "Feature", "properties": {"naam": "Vereniging Digitalisering Zorg Achterhoek"}, "geometry": {"type": "Polygon", "coordinates": [[[6.75988, 52.11852], [6.661, 52.13033], [6.66786, 52.1674], [6.58821, 52.18172], [6.48659, 52.18004], [6.44879, 52.12144], [6.31009, 52.07082], [6.18924, 51.9601], [6.16864, 51.89998], [6.2167, 51.86776], [6.27713, 51.87031], [6.30597, 51.85165], [6.35815, 51.84741], [6.40622, 51.82789], [6.41034, 51.85504], [6.39248, 51.8754], [6.46939, 51.85419], [6.56003, 51.88472], [6.69186, 51.91523], [6.72345, 51.89743], [6.79074, 51.92708], [6.7976, 51.95756], [6.83331, 51.96771], [6.82782, 51.99394], [6.71795, 52.04126], [6.68774, 52.04211], [6.69735, 52.06997], [6.7413, 52.07588], [6.75988, 52.11852]]]}}, {"type": "Feature", "properties": {"naam": "IJssel-Vecht"}, "geometry": {"type": "Polygon", "coordinates": [[[6.09382, 52.77664], [5.98396, 52.77664], [6.01692, 52.63769], [5.83565, 52.60851], [5.79582, 52.58348], [5.85762, 52.54843], [5.8741, 52.52086], [5.92903, 52.47822], [6.00662, 52.48868], [6.05881, 52.49014], [6.1, 52.47028], [6.20918, 52.46107], [6.33756, 52.43543], [6.38836, 52.42944], [6.49483, 52.45789], [6.6967, 52.48801], [6.70494, 52.52086], [6.68022, 52.5526], [6.76674, 52.56178], [6.7173, 52.59183], [6.71475, 52.62741], [6.6145, 52.67324], [6.38654, 52.61324], [6.29727, 52.66074], [6.16544, 52.6724], [6.09382, 52.77664]]]}}, {"type": "Feature", "properties": {"naam": "Salland United"}, "geometry": {"type": "Polygon", "coordinates": [[[6.20918, 52.46107], [6.1, 52.47028], [6.10627, 52.4445], [6.1345, 52.41873], [6.12953, 52.40281], [6.12574, 52.38353], [6.07803, 52.36719], [6.08902, 52.30341], [6.10618, 52.27149], [6.07185, 52.23324], [6.13502, 52.152], [6.31218, 52.22483], [6.35269, 52.2381], [6.33484, 52.32632], [6.37604, 52.39844], [6.38836, 52.42944], [6.33756, 52.43543], [6.20918, 52.46107]]]}}, {"type": "Feature", "properties": {"naam": "RSO Haaglanden"}, "geometry": {"type": "Polygon", "coordinates": [[[4.23893, 52.04046], [4.28974, 52.00835], [4.31377, 52.01173], [4.3536, 52.04469], [4.3845, 52.05187], [4.482, 52.03117], [4.52425, 52.03003], [4.54929, 52.04595], [4.57676, 52.09871], [4.53638, 52.09735], [4.41664, 52.11613], [4.43704, 52.15247], [4.38051, 52.19553], [4.29729, 52.12443], [4.28053, 52.11616], [4.25897, 52.1024], [4.24518, 52.08992], [4.2079, 52.06394], [4.1853, 52.05801], [4.18092, 52.05147], [4.23893, 52.04046]]]}}, {"type": "Feature", "properties": {"naam": "RSO Zuid-Limburg"}, "geometry": {"type": "Polygon", "coordinates": [[[5.75667, 51.03234], [5.77453, 51.02456], [5.76697, 50.99821], [5.73951, 50.98006], [5.71685, 50.96103], [5.73058, 50.95411], [5.74294, 50.96276], [5.76011, 50.95454], [5.74843, 50.94676], [5.72303, 50.9104], [5.69487, 50.91257], [5.67771, 50.88225], [5.64269, 50.87315], [5.63926, 50.84411], [5.65574, 50.82113], [5.6935, 50.81158], [5.70105, 50.78034], [5.67771, 50.75732], [5.73607, 50.75775], [5.77247, 50.78424], [5.78345, 50.76861], [5.83495, 50.7621], [5.88508, 50.76818], [5.90224, 50.75384], [5.95717, 50.7621], [5.97434, 50.75384], [6.01966, 50.75515], [6.02652, 50.77513], [5.97434, 50.79857], [5.98189, 50.80985], [6.00387, 50.80204], [6.02309, 50.81549], [6.01691, 50.84585], [6.07253, 50.84628], [6.09038, 50.91863], [6.01897, 50.93334], [6.02584, 50.98222], [5.96713, 50.97845], [5.95373, 50.98721], [5.89812, 50.97357], [5.90568, 51.00079], [5.8837, 51.01528], [5.87725, 51.03817], [5.8646, 51.05199], [5.79834, 51.06957], [5.79719, 51.05996], [5.77247, 51.0604], [5.75667, 51.03234]]]}}, {"type": "Feature", "properties": {"naam": "Gedeelde Zorg Midden-Holland"}, "geometry": {"type": "Polygon", "coordinates": [[[4.57676, 52.0986], [4.54929, 52.04585], [4.51341, 52.02271], [4.56092, 52.00961], [4.7043, 51.90001], [4.88832, 51.93135], [4.82104, 51.98896], [4.83781, 52.14067], [4.71834, 52.10273], [4.57676, 52.0986]]]}}, {"type": "Feature", "properties": {"naam": "Gelderse Vallei"}, "geometry": {"type": "Polygon", "coordinates": [[[5.55349, 51.95972], [5.58645, 51.94872], [5.62147, 51.99144], [5.6709, 52.01216], [5.78441, 52.06764], [5.69631, 52.19057], [5.60155, 52.19478], [5.50471, 52.19617], [5.47679, 52.07134], [5.34302, 51.95899], [5.3809, 51.96165], [5.4038, 51.96564], [5.43959, 51.98433], [5.48353, 51.98137], [5.54186, 51.96822], [5.55349, 51.95972]]]}}, {"type": "Feature", "properties": {"naam": "Drechtzorg"}, "geometry": {"type": "Polygon", "coordinates": [[[4.76198, 51.91187], [4.72245, 51.89818], [4.62396, 51.88687], [4.60062, 51.80713], [4.65178, 51.78872], [4.75923, 51.78547], [4.80867, 51.79524], [4.76198, 51.91187]]]}}, {"type": "Feature", "properties": {"naam": "Gezond Veluwe"}, "geometry": {"type": "Polygon", "coordinates": [[[5.5252, 52.26255], [5.50676, 52.19996], [5.69631, 52.19099], [5.79966, 52.24945], [5.87726, 52.35575], [6.09382, 52.47488], [6.05881, 52.49014], [6.00662, 52.48868], [5.92903, 52.47822], [5.8741, 52.52086], [5.79301, 52.44639], [5.73748, 52.42831], [5.49578, 52.34576], [5.5252, 52.26255]]]}}, {"type": "Feature", "properties": {"naam": "’t Gooi"}, "geometry": {"type": "Polygon", "coordinates": [[[4.90618, 52.25876], [5.16024, 52.18052], [5.358, 52.27641], [5.26216, 52.32823], [5.14662, 52.33209], [4.90618, 52.25876]]]}}, {"type": "Feature", "properties": {"naam": "Rivierenland"}, "geometry": {"type": "Polygon", "coordinates": [[[5.02153, 51.81944], [4.97657, 51.71732], [5.05807, 51.71436], [5.09493, 51.72971], [5.12117, 51.73681], [5.16412, 51.74343], [5.19255, 51.7405], [5.20151, 51.80601], [5.25437, 51.81897], [5.30863, 51.82469], [5.37162, 51.81601], [5.45127, 51.88557], [5.57624, 51.90506], [5.61569, 51.90007], [5.58645, 51.94914], [5.55349, 51.96014], [5.54186, 51.96865], [5.48353, 51.9818], [5.43958, 51.98476], [5.4038, 51.96607], [5.3809, 51.96207], [5.34302, 51.95941], [5.20286, 51.93213], [5.08805, 51.84401], [5.02153, 51.81944]]]}}, {"type": "Feature", "properties": {"naam": "Apeldoorn-Zutphen"}, "geometry": {"type": "Polygon", "coordinates": [[[5.87726, 52.35575], [5.79966, 52.24945], [5.69631, 52.19099], [5.78441, 52.06807], [6.31009, 52.07082], [6.44879, 52.12144], [6.48659, 52.18004], [6.40969, 52.24231], [6.35269, 52.2381], [6.13502, 52.152], [6.07185, 52.23324], [6.10618, 52.27149], [6.08902, 52.30341], [6.07803, 52.36719], [6.12574, 52.38353], [6.1345, 52.41873], [6.10627, 52.4445], [6.1, 52.47028], [6.09382, 52.47488], [5.87726, 52.35575]]]}}, {"type": "Feature", "properties": {"naam": "Arnhem"}, "geometry": {"type": "Polygon", "coordinates": [[[5.78441, 52.06807], [5.62147, 51.99186], [5.58645, 51.94914], [5.61569, 51.90007], [5.75241, 51.88253], [5.89485, 51.86946], [6.00334, 51.88133], [6.11262, 51.89916], [6.16864, 51.89998], [6.18924, 51.9601], [6.31009, 52.07082], [5.78441, 52.06807]]]}}, {"type": "Feature", "properties": {"naam": "Westland Schieland Delfland (RIGA)"}, "geometry": {"type": "Polygon", "coordinates": [[[4.09868, 51.98636], [4.28819, 51.94828], [4.46113, 52.01007], [4.51341, 52.02271], [4.52425, 52.02993], [4.482, 52.03106], [4.3845, 52.05176], [4.3536, 52.04458], [4.31377, 52.01163], [4.28974, 52.00825], [4.23893, 52.04036], [4.18092, 52.05147], [4.1707, 52.03704], [4.10677, 51.98935], [4.09868, 51.98636]]]}}, {"type": "Feature", "properties": {"naam": "Waardenland"}, "geometry": {"type": "Polygon", "coordinates": [[[4.76172, 51.90788], [4.80867, 51.79524], [4.86471, 51.80525], [4.91827, 51.82817], [5.02153, 51.81944], [5.08805, 51.84401], [5.17753, 51.91429], [5.15722, 51.93625], [5.14967, 51.97391], [5.12015, 51.99971], [5.09817, 52.00436], [4.88832, 51.93135], [4.76172, 51.90788]]]}}, {"type": "Feature", "properties": {"naam": "Flevoland"}, "geometry": {"type": "Polygon", "coordinates": [[[5.33751, 52.3799], [5.36634, 52.32788], [5.32652, 52.30271], [5.41067, 52.25635], [5.51622, 52.27364], [5.49578, 52.34576], [5.62076, 52.38935], [5.79301, 52.44639], [5.85367, 52.5249], [5.79582, 52.58348], [5.80464, 52.60896], [5.98389, 52.65103], [5.9605, 52.78363], [6.06969, 52.78512], [6.0416, 52.82314], [5.6639, 52.83349], [5.59497, 52.76687], [5.59903, 52.66475], [5.6527, 52.62194], [5.63589, 52.60362], [5.55043, 52.592], [5.47955, 52.54937], [5.25804, 52.43134], [5.21529, 52.41426], [5.33751, 52.3799]]]}}, {"type": "Feature", "properties": {"naam": "Sigra"}, "geometry": {"type": "Polygon", "coordinates": [[[4.54775, 52.46134], [4.55736, 52.4287], [4.49144, 52.33062], [4.56835, 52.31131], [4.6068, 52.31383], [4.68233, 52.2567], [4.84056, 52.19037], [4.90653, 52.25919], [5.14662, 52.33209], [5.25237, 52.33041], [5.32652, 52.30271], [5.36634, 52.32788], [5.33751, 52.3799], [5.19881, 52.41174], [5.03539, 52.3581], [5.01067, 52.38493], [4.88885, 52.43093], [4.64675, 52.4603], [4.54775, 52.46134]]]}}, {"type": "Feature", "properties": {"naam": "Zeeuwse Zorgcoalitie"}, "geometry": {"type": "Polygon", "coordinates": [[[3.94054, 51.5593], [3.83699, 51.60557], [3.67413, 51.59941], [3.578, 51.59856], [3.42419, 51.54479], [3.42831, 51.52941], [3.53268, 51.45502], [3.5162, 51.41136], [3.36514, 51.37194], [3.38436, 51.33506], [3.36651, 51.29815], [3.43105, 51.24317], [3.52993, 51.24918], [3.51482, 51.28184], [3.58349, 51.30502], [3.79086, 51.26036], [3.79223, 51.21135], [3.88836, 51.22597], [3.88149, 51.20016], [4.05178, 51.24059], [4.16714, 51.293], [4.24903, 51.37614], [4.23255, 51.45494], [3.94054, 51.5593]]]}}, {"type": "Feature", "properties": {"naam": "Zuidhollandse Eilanden"}, "geometry": {"type": "Polygon", "coordinates": [[[3.67526, 51.62058], [3.88125, 51.6291], [3.93206, 51.62313], [3.97601, 51.58219], [4.06939, 51.52242], [4.22869, 51.47027], [4.26852, 51.63677], [4.20809, 51.64359], [4.15042, 51.68278], [4.09136, 51.68959], [4.02819, 51.68618], [4.00485, 51.70746], [3.95541, 51.74659], [3.86513, 51.77832], [3.72195, 51.74149], [3.67388, 51.70661], [3.67526, 51.62058]]]}}]}